[{"OBJECT_NAME":"OTTER","OBJECT_ID":"2025-009Q","EPOCH":"2026-03-09T17:21:07.902432","MEAN_MOTION":15.27809545,"ECCENTRICITY":0.00035728,"INCLINATION":97.4065,"RA_OF_ASC_NODE":151.3812,"ARG_OF_PERICENTER":310.771,"MEAN_ANOMALY":49.3219,"EPHEMERIS_TYPE":0,"CLASSIFICATION_TYPE":"U","NORAD_CAT_ID":62623,"ELEMENT_SET_NO":999,"REV_AT_EPOCH":6372,"BSTAR":0.00045151206,"MEAN_MOTION_DOT":0.00012198,"MEAN_MOTION_DDOT":0},{"OBJECT_NAME":"STARLINK-35941","OBJECT_ID":"2025-268AC","EPOCH":"2026-03-09T04:01:15.320352","MEAN_MOTION":15.27614759,"ECCENTRICITY":0.0001704,"INCLINATION":43.0043,"RA_OF_ASC_NODE":349.6827,"ARG_OF_PERICENTER":259.9625,"MEAN_ANOMALY":100.1035,"EPHEMERIS_TYPE":0,"CLASSIFICATION_TYPE":"U","NORAD_CAT_ID":66583,"ELEMENT_SET_NO":999,"REV_AT_EPOCH":1788,"BSTAR":0.0012194103,"MEAN_MOTION_DOT":0.00033482,"MEAN_MOTION_DDOT":0}]
